[ {"spaceTrack": {"CCSDS_OMM_VERS": "2.0", "COMMENT": "GENERATED VIA SPACE-TRACK.ORG API", "CREATION_DATE": "2020-08-23 14:56:10", "ORIGINATOR": "18 SPCS", "OBJECT_NAME": "STARLINK-1536", "OBJECT_ID": "2020-055AV", "CENTER_NAME": "EARTH", "REF_FRAME": "TEME", "TIME_SYSTEM": "UTC", "MEAN_ELEMENT_THEORY": "SGP4", "EPOCH": "2020-08-23 14:00:01.999872", "MEAN_MOTION": 15.62799487, "ECCENTRICITY": 0.0008093, "INCLINATION": 52.9985, "RA_OF_ASC_NODE": 211.4728, "ARG_OF_PERICENTER": 292.1069, "MEAN_ANOMALY": 269.3556, "EPHEMERIS_TYPE": 0, "CLASSIFICATION_TYPE": "U", "NORAD_CAT_ID": 46070, "ELEMENT_SET_NO": 999, "REV_AT_EPOCH": 330, "BSTAR": -0.00048364, "MEAN_MOTION_DOT": -0.00044742, "MEAN_MOTION_DDOT": 0, "SEMIMAJOR_AXIS": 6757.711, "PERIOD": 92.142, "APOAPSIS": 385.045, "PERIAPSIS": 374.107, "OBJECT_TYPE": "PAYLOAD", "RCS_SIZE": "LARGE", "COUNTRY_CODE": "US", "LAUNCH_DATE": "2020-08-07", "SITE": "AFETR", "DECAY_DATE": null, "DECAYED": 0, "FILE": 2807079, "GP_ID": 159941220, "TLE_LINE0": "0 STARLINK-1536", "TLE_LINE1": "1 46070U 20055AV  20236.58335648 -.00044742  00000-0 -48364-3 0  9995", "TLE_LINE2": "2 46070  52.9985 211.4728 0008093 292.1069 269.3556 15.62799487  3301"}, "version": "v1.0", "launch": "5ed9819a1f30554030d45c29", "longitude": -175.6962140186841, "latitude": -48.74211504019692, "height_km": 390.91160262845005, "velocity_kms": 7.678456223986819, "id": "5f36cb5abd888300062740dc"}, {"spaceTrack": {"CCSDS_OMM_VERS": "2.0", "COMMENT": "GENERATED VIA SPACE-TRACK.ORG API", "CREATION_DATE": "2020-08-23 14:46:10", "ORIGINATOR": "18 SPCS", "OBJECT_NAME": "STARLINK-1535", "OBJECT_ID": "2020-055Z", "CENTER_NAME": "EARTH", "REF_FRAME": "TEME", "TIME_SYSTEM": "UTC", "MEAN_ELEMENT_THEORY": "SGP4", "EPOCH": "2020-08-23 14:00:01.999872", "MEAN_MOTION": 15.62753441, "ECCENTRICITY": 0.000813, "INCLINATION": 53.0004, "RA_OF_ASC_NODE": 211.4452, "ARG_OF_PERICENTER": 294.6024, "MEAN_ANOMALY": 280.8773, "EPHEMERIS_TYPE": 0, "CLASSIFICATION_TYPE": "U", "NORAD_CAT_ID": 46050, "ELEMENT_SET_NO": 999, "REV_AT_EPOCH": 330, "BSTAR": -0.00030214, "MEAN_MOTION_DOT": -0.00028161, "MEAN_MOTION_DDOT": 0, "SEMIMAJOR_AXIS": 6757.844, "PERIOD": 92.145, "APOAPSIS": 385.203, "PERIAPSIS": 374.215, "OBJECT_TYPE": "PAYLOAD", "RCS_SIZE": "LARGE", "COUNTRY_CODE": "US", "LAUNCH_DATE": "2020-08-07", "SITE": "AFETR", "DECAY_DATE": null, "DECAYED": 0, "FILE": 2807075, "GP_ID": 159940712, "TLE_LINE0": "0 STARLINK-1535", "TLE_LINE1": "1 46050U 20055Z   20236.58335648 -.00028161  00000-0 -30214-3 0  9995", "TLE_LINE2": "2 46050  53.0004 211.4452 0008130 294.6024 280.8773 15.62753441  3306"}, "version": "v1.0", "launch": "5ed9819a1f30554030d45c29", "longitude": -158.7436934816237, "latitude": -41.59830635719833, "height_km": 388.1178839101858, "velocity_kms": 7.68004475950036, "id": "5f36cb5abd888300062740da"}, {"spaceTrack": {"CCSDS_OMM_VERS": "2.0", "COMMENT": "GENERATED VIA SPACE-TRACK.ORG API", "CREATION_DATE": "2020-08-23 14:56:10", "ORIGINATOR": "18 SPCS", "OBJECT_NAME": "STARLINK-1579", "OBJECT_ID": "2020-055BJ", "CENTER_NAME": "EARTH", "REF_FRAME": "TEME", "TIME_SYSTEM": "UTC", "MEAN_ELEMENT_THEORY": "SGP4", "EPOCH": "2020-08-23 14:00:01.999872", "MEAN_MOTION": 15.62759583, "ECCENTRICITY": 0.0008374, "INCLINATION": 52.999, "RA_OF_ASC_NODE": 211.4251, "ARG_OF_PERICENTER": 297.0177, "MEAN_ANOMALY": 287.36, "EPHEMERIS_TYPE": 0, "CLASSIFICATION_TYPE": "U", "NORAD_CAT_ID": 46083, "ELEMENT_SET_NO": 999, "REV_AT_EPOCH": 330, "BSTAR": -0.00055767, "MEAN_MOTION_DOT": -0.00051394, "MEAN_MOTION_DDOT": 0, "SEMIMAJOR_AXIS": 6757.826, "PERIOD": 92.144, "APOAPSIS": 385.35, "PERIAPSIS": 374.032, "OBJECT_TYPE": "PAYLOAD", "RCS_SIZE": "LARGE", "COUNTRY_CODE": "US", "LAUNCH_DATE": "2020-08-07", "SITE": "AFETR", "DECAY_DATE": null, "DECAYED": 0, "FILE": 2807089, "GP_ID": 159940884, "TLE_LINE0": "0 STARLINK-1579", "TLE_LINE1": "1 46083U 20055BJ  20236.58335648 -.00051394  00000-0 -55767-3 0  9995", "TLE_LINE2": "2 46083  52.9990 211.4251 0008374 297.0177 287.3600 15.62759583  3301"}, "version": "v1.0", "launch": "5ed9819a1f30554030d45c29", "longitude": -149.96310161095235, "latitude": -35.936449008102805, "height_km": 385.79443653320413, "velocity_kms": 7.681436687163353, "id": "5f36cb5abd888300062740df"}, {"spaceTrack": {"CCSDS_OMM_VERS": "2.0", "COMMENT": "GENERATED VIA SPACE-TRACK.ORG API", "CREATION_DATE": "2020-08-23 14:46:10", "ORIGINATOR": "18 SPCS", "OBJECT_NAME": "STARLINK-1529", "OBJECT_ID": "2020-055AS", "CENTER_NAME": "EARTH", "REF_FRAME": "TEME", "TIME_SYSTEM": "UTC", "MEAN_ELEMENT_THEORY": "SGP4", "EPOCH": "2020-08-23 14:00:01.999872", "MEAN_MOTION": 15.59935464, "ECCENTRICITY": 0.0009393, "INCLINATION": 53.0062, "RA_OF_ASC_NODE": 211.614, "ARG_OF_PERICENTER": 314.6195, "MEAN_ANOMALY": 179.6923, "EPHEMERIS_TYPE": 0, "CLASSIFICATION_TYPE": "U", "NORAD_CAT_ID": 46067, "ELEMENT_SET_NO": 999, "REV_AT_EPOCH": 330, "BSTAR": -0.00041268, "MEAN_MOTION_DOT": -0.00034344, "MEAN_MOTION_DDOT": 0, "SEMIMAJOR_AXIS": 6765.98, "PERIOD": 92.311, "APOAPSIS": 394.2, "PERIAPSIS": 381.49, "OBJECT_TYPE": "PAYLOAD", "RCS_SIZE": "LARGE", "COUNTRY_CODE": "US", "LAUNCH_DATE": "2020-08-07", "SITE": "AFETR", "DECAY_DATE": null, "DECAYED": 0, "FILE": 2807072, "GP_ID": 159940325, "TLE_LINE0": "0 STARLINK-1529", "TLE_LINE1": "1 46067U 20055AS  20236.58335648 -.00034344  00000-0 -41268-3 0  9994", "TLE_LINE2": "2 46067  53.0062 211.6140 0009393 314.6195 179.6923 15.59935464  3303"}, "version": "v1.0", "launch": "5ed9819a1f30554030d45c29", "longitude": 89.01618514109919, "latitude": -30.228858920357972, "height_km": 397.91053777888465, "velocity_kms": 7.671094344284573, "id": "5f36cb5abd888300062740de"}, {"spaceTrack": {"CCSDS_OMM_VERS": "2.0", "COMMENT": "GENERATED VIA SPACE-TRACK.ORG API", "CREATION_DATE": "2020-08-23 14:56:10", "ORIGINATOR": "18 SPCS", "OBJECT_NAME": "STARLINK-1561", "OBJECT_ID": "2020-055AF", "CENTER_NAME": "EARTH", "REF_FRAME": "TEME", "TIME_SYSTEM": "UTC", "MEAN_ELEMENT_THEORY": "SGP4", "EPOCH": "2020-08-23 14:00:01.999872", "MEAN_MOTION": 15.62796786, "ECCENTRICITY": 0.0008427, "INCLINATION": 52.999, "RA_OF_ASC_NODE": 211.4608, "ARG_OF_PERICENTER": 294.1229, "MEAN_ANOMALY": 273.6897, "EPHEMERIS_TYPE": 0, "CLASSIFICATION_TYPE": "U", "NORAD_CAT_ID": 46056, "ELEMENT_SET_NO": 999, "REV_AT_EPOCH": 330, "BSTAR": -0.00032489, "MEAN_MOTION_DOT": -0.00030288, "MEAN_MOTION_DDOT": 0, "SEMIMAJOR_AXIS": 6757.719, "PERIOD": 92.142, "APOAPSIS": 385.279, "PERIAPSIS": 373.889, "OBJECT_TYPE": "PAYLOAD", "RCS_SIZE": "LARGE", "COUNTRY_CODE": "US", "LAUNCH_DATE": "2020-08-07", "SITE": "AFETR", "DECAY_DATE": null, "DECAYED": 0, "FILE": 2807086, "GP_ID": 159941308, "TLE_LINE0": "0 STARLINK-1561", "TLE_LINE1": "1 46056U 20055AF  20236.58335648 -.00030288  00000-0 -32489-3 0  9990", "TLE_LINE2": "2 46056  52.9990 211.4608 0008427 294.1229 273.6897 15.62796786  3304"}, "version": "v1.0", "launch": "5ed9819a1f30554030d45c29", "longitude": -167.43693914672633, "latitude": -45.80037989013567, "height_km": 389.4652575885066, "velocity_kms": 7.679410371330339, "id": "5f36cb5abd888300062740dd"}, {"spaceTrack": {"CCSDS_OMM_VERS": "2.0", "COMMENT": "GENERATED VIA SPACE-TRACK.ORG API", "CREATION_DATE": "2020-08-23 14:56:10", "ORIGINATOR": "18 SPCS", "OBJECT_NAME": "STARLINK-1551", "OBJECT_ID": "2020-055BA", "CENTER_NAME": "EARTH", "REF_FRAME": "TEME", "TIME_SYSTEM": "UTC", "MEAN_ELEMENT_THEORY": "SGP4", "EPOCH": "2020-08-23 14:00:01.999872", "MEAN_MOTION": 15.62781741, "ECCENTRICITY": 0.0007506, "INCLINATION": 52.999, "RA_OF_ASC_NODE": 211.4785, "ARG_OF_PERICENTER": 293.3014, "MEAN_ANOMALY": 265.555, "EPHEMERIS_TYPE": 0, "CLASSIFICATION_TYPE": "U", "NORAD_CAT_ID": 46075, "ELEMENT_SET_NO": 999, "REV_AT_EPOCH": 330, "BSTAR": -0.00029714, "MEAN_MOTION_DOT": -0.00027728, "MEAN_MOTION_DDOT": 0, "SEMIMAJOR_AXIS": 6757.762, "PERIOD": 92.143, "APOAPSIS": 384.7, "PERIAPSIS": 374.555, "OBJECT_TYPE": "PAYLOAD", "RCS_SIZE": "LARGE", "COUNTRY_CODE": "US", "LAUNCH_DATE": "2020-08-07", "SITE": "AFETR", "DECAY_DATE": null, "DECAYED": 0, "FILE": 2807083, "GP_ID": 159941268, "TLE_LINE0": "0 STARLINK-1551", "TLE_LINE1": "1 46075U 20055BA  20236.58335648 -.00027728  00000-0 -29714-3 0  9993", "TLE_LINE2": "2 46075  52.9990 211.4785 0007506 293.3014 265.5550 15.62781741  3302"}, "version": "v1.0", "launch": "5ed9819a1f30554030d45c29", "longitude": -179.38596503672383, "latitude": -49.775932744546154, "height_km": 391.7648763840034, "velocity_kms": 7.677728568712281, "id": "5f36cb5abd888300062740e0"}, {"spaceTrack": {"CCSDS_OMM_VERS": "2.0", "COMMENT": "GENERATED VIA SPACE-TRACK.ORG API", "CREATION_DATE": "2020-08-23 22:46:10", "ORIGINATOR": "18 SPCS", "OBJECT_NAME": "STARLINK-1556", "OBJECT_ID": "2020-055G", "CENTER_NAME": "EARTH", "REF_FRAME": "TEME", "TIME_SYSTEM": "UTC", "MEAN_ELEMENT_THEORY": "SGP4", "EPOCH": "2020-08-23 22:00:00.999936", "MEAN_MOTION": 15.22405104, "ECCENTRICITY": 0.0001449, "INCLINATION": 53.0079, "RA_OF_ASC_NODE": 212.1304, "ARG_OF_PERICENTER": 60.7913, "MEAN_ANOMALY": 169.6482, "EPHEMERIS_TYPE": 0, "CLASSIFICATION_TYPE": "U", "NORAD_CAT_ID": 46033, "ELEMENT_SET_NO": 999, "REV_AT_EPOCH": 335, "BSTAR": -0.046216, "MEAN_MOTION_DOT": -0.0099622, "MEAN_MOTION_DDOT": 0, "SEMIMAJOR_AXIS": 6876.725, "PERIOD": 94.587, "APOAPSIS": 499.586, "PERIAPSIS": 497.594, "OBJECT_TYPE": "PAYLOAD", "RCS_SIZE": "LARGE", "COUNTRY_CODE": "US", "LAUNCH_DATE": "2020-08-07", "SITE": "AFETR", "DECAY_DATE": null, "DECAYED": 0, "FILE": 2807288, "GP_ID": 159986744, "TLE_LINE0": "0 STARLINK-1556", "TLE_LINE1": "1 46033U 20055G   20236.91667824 -.00996220  00000-0 -46216-1 0  9994", "TLE_LINE2": "2 46033  53.0079 212.1304 0001449  60.7913 169.6482 15.22405104  3350"}, "version": "v1.0", "launch": "5ed9819a1f30554030d45c29", "longitude": 104.06150498997867, "latitude": -39.88695643646754, "height_km": 513.1005996954409, "velocity_kms": 7.606457116200743, "id": "5f36cb5abd888300062740e1"}]